NAYIF-1 (EO-88)         
1 42017U 17008BX  20096.71674190  .00001575  00000-0  63498-4 0  9994
2 42017  97.3660 165.3258 0005429 204.4364 155.6618 15.26287919174453
MAX VALIER SAT          
1 42778U 17036P   20096.91761758  .00000914  00000-0  42398-4 0  9990
2 42778  97.3136 152.5309 0010460 278.2506  81.7544 15.22488461154690
RADFXSAT (FOX-1B)       
1 43017U 17073E   20096.72296528  .00000525  00000-0  46954-4 0  9995
2 43017  97.7253  11.7574 0255816 287.4556  69.8842 14.78871129128410
FOX-1D (AO-92)          
1 43137U 18004AC  20096.86816175  .00001027  00000-0  45366-4 0  9998
2 43137  97.4511 168.5059 0007939 318.7038  41.3598 15.23981945123989
ES'HAIL 2               
1 43700U 18090A   20096.84334281  .00000129  00000-0  00000-0 0  9994
2 43700   0.0230 118.7692 0002550 285.4366 119.7965  1.00273524  4984
FOX-1CLIFF (AO-95)      
1 43770U 18099N   20096.68594344  .00000663  00000-0  65805-4 0  9991
2 43770  97.7111 169.3173 0016180  81.7602 278.5453 14.94943042 73047
ITASAT 1                
1 43786U 18099AE  20096.76642799  .00000177  00000-0  21269-4 0  9991
2 43786  97.7126 169.7637 0016747  75.4231 284.8846 14.95289974 73073
JY1SAT (JO-97)          
1 43803U 18099AX  20096.99004770  .00000099  00000-0  14120-4 0  9998
2 43803  97.7082 169.8206 0016532  75.3267 284.9785 14.95453858 73108
PSAT2 (NO-104)          
1 44354U 19036R   20096.80892356  .00014185  00000-0  21080-3 0  9990
2 44354  28.5326 137.2982 0369513 255.8000 100.1278 15.02089401 42877
BRICSAT2 (NO-103)       
1 44355U 19036S   20096.78777609  .00025798  00000-0  37319-3 0  9995
2 44355  28.5327 132.2567 0353082 263.9962  92.0291 15.06212451 42921
JAISAT-1                
1 44419U 19038F   20096.79295030  .00001023  00000-0  61971-4 0  9999
2 44419  97.5310  59.2812 0022434  25.2568 334.9755 15.12661587 41619
DUCHIFAT-3              
1 44854U 19089C   20097.22352285  .00000455  00000-0  43247-4 0  9997
2 44854  36.9659 165.1997 0007492 205.7647 154.2734 14.99014734 17451
ORBITAL FACTORY 2 (OF-2)
1 45113U 19071C   20096.74356819  .00001589  00000-0  60559-4 0  9994
2 45113  51.6443 354.7194 0013439 153.0506 207.1177 15.33068769  9970
HUSKYSAT-1              
1 45119U 19071J   20096.60250864  .00002104  00000-0  75841-4 0  9992
2 45119  51.6441 355.2784 0012732 148.8191 211.3548 15.33310353  9947
